CSS (TIANHE)            
1 48274U 21035A   24092.96753515  .00042319  00000+0  42578-3 0  9991
2 48274  41.4673 188.9218 0009914 302.9021  57.0865 15.64583929167163
